{"type": "FeatureCollection", "features": [ {"type": "Feature", "properties": {"norad_id": 33917, "name": "COSMOS 2251 DEB", "group": "cosmos-2251-debris", "lat": -69.47680164058002, "lon": 53.97405498651255, "alt_km": 963.4385290583705, "timestamp": "2025-12-24T05:51:20.002485+00:00", "meta": {"OBJECT_NAME": "COSMOS 2251 DEB", "OBJECT_ID": "1993-036DW", "EPOCH": "2025-12-23T23:13:41.251584", "MEAN_MOTION": 13.6938362, "ECCENTRICITY": 0.03311755, "INCLINATION": 74.1072, "RA_OF_ASC_NODE": 103.9832, "ARG_OF_PERICENTER": 202.4938, "MEAN_ANOMALY": 156.1377, "EPHEMERIS_TYPE": 0, "CLASSIFICATION_TYPE": "U", "NORAD_CAT_ID": 33917, "ELEMENT_SET_NO": 999, "REV_AT_EPOCH": 83887, "BSTAR": 0.00089975422, "MEAN_MOTION_DOT": 1.127e-05, "MEAN_MOTION_DDOT": 0}, "tle": {"line1": "1 33917U 93036DW  25357.96783856  .00001127  00000+0  89975-3 0  9999", "line2": "2 33917  74.1072 103.9832 0331175 202.4938 156.1377 13.69383620838875"}}, "geometry": {"type": "Point", "coordinates": [53.97405498651255, -69.47680164058002]}}, {"type": "Feature", "properties": {"norad_id": 33920, "name": "COSMOS 2251 DEB", "group": "cosmos-2251-debris", "lat": 72.94031255128807, "lon": -14.801286728163381, "alt_km": 716.3770736423503, "timestamp": "2025-12-24T05:51:20.002495+00:00", "meta": {"OBJECT_NAME": "COSMOS 2251 DEB", "OBJECT_ID": "1993-036DZ", "EPOCH": "2025-12-23T01:29:04.163136", "MEAN_MOTION": 14.58425135, "ECCENTRICITY": 0.00378205, "INCLINATION": 74.0612, "RA_OF_ASC_NODE": 278.8111, "ARG_OF_PERICENTER": 283.8425, "MEAN_ANOMALY": 75.8533, "EPHEMERIS_TYPE": 0, "CLASSIFICATION_TYPE": "U", "NORAD_CAT_ID": 33920, "ELEMENT_SET_NO": 999, "REV_AT_EPOCH": 88265, "BSTAR": 0.001742781, "MEAN_MOTION_DOT": 8.141e-05, "MEAN_MOTION_DDOT": 0}, "tle": {"line1": "1 33920U 93036DZ  25357.06185374  .00008141  00000+0  17428-2 0  9991", "line2": "2 33920  74.0612 278.8111 0037820 283.8425  75.8533 14.58425135882657"}}, "geometry": {"type": "Point", "coordinates": [-14.801286728163381, 72.94031255128807]}}, {"type": "Feature", "properties": {"norad_id": 33922, "name": "COSMOS 2251 DEB", "group": "cosmos-2251-debris", "lat": -38.28371908061885, "lon": -40.75866025415074, "alt_km": 717.342105579135, "timestamp": "2025-12-24T05:51:20.002505+00:00", "meta": {"OBJECT_NAME": "COSMOS 2251 DEB", "OBJECT_ID": "1993-036EB", "EPOCH": "2025-12-23T10:55:54.298848", "MEAN_MOTION": 14.49545055, "ECCENTRICITY": 0.0023148, "INCLINATION": 74.0469, "RA_OF_ASC_NODE": 127.6709, "ARG_OF_PERICENTER": 237.1242, "MEAN_ANOMALY": 190.0091, "EPHEMERIS_TYPE": 0, "CLASSIFICATION_TYPE": "U", "NORAD_CAT_ID": 33922, "ELEMENT_SET_NO": 999, "REV_AT_EPOCH": 88733, "BSTAR": 0.00046949737, "MEAN_MOTION_DOT": 1.78e-05, "MEAN_MOTION_DDOT": 0}, "tle": {"line1": "1 33922U 93036EB  25357.45548957  .00001780  00000+0  46950-3 0  9991", "line2": "2 33922  74.0469 127.6709 0023148 237.1242 190.0091 14.49545055887333"}}, "geometry": {"type": "Point", "coordinates": [-40.75866025415074, -38.28371908061885]}}, {"type": "Feature", "properties": {"norad_id": 33924, "name": "COSMOS 2251 DEB", "group": "cosmos-2251-debris", "lat": 6.075694929664665, "lon": -106.52971409973186, "alt_km": 1015.7910351190249, "timestamp": "2025-12-24T05:51:20.002515+00:00", "meta": {"OBJECT_NAME": "COSMOS 2251 DEB", "OBJECT_ID": "1993-036ED", "EPOCH": "2025-12-23T01:22:30.954144", "MEAN_MOTION": 13.50237539, "ECCENTRICITY": 0.04038408, "INCLINATION": 73.9132, "RA_OF_ASC_NODE": 253.6169, "ARG_OF_PERICENTER": 287.2487, "MEAN_ANOMALY": 68.4807, "EPHEMERIS_TYPE": 0, "CLASSIFICATION_TYPE": "U", "NORAD_CAT_ID": 33924, "ELEMENT_SET_NO": 999, "REV_AT_EPOCH": 82878, "BSTAR": 0.00045567594, "MEAN_MOTION_DOT": 4.59e-06, "MEAN_MOTION_DDOT": 0}, "tle": {"line1": "1 33924U 93036ED  25357.05730271  .00000459  00000+0  45568-3 0  9997", "line2": "2 33924  73.9132 253.6169 0403840 287.2487  68.4807 13.50237539828781"}}, "geometry": {"type": "Point", "coordinates": [-106.52971409973186, 6.075694929664665]}}, {"type": "Feature", "properties": {"norad_id": 33928, "name": "COSMOS 2251 DEB", "group": "cosmos-2251-debris", "lat": -22.458988077848176, "lon": 24.059571975192917, "alt_km": 696.2975907555974, "timestamp": "2025-12-24T05:51:20.002525+00:00", "meta": {"OBJECT_NAME": "COSMOS 2251 DEB", "OBJECT_ID": "1993-036EH", "EPOCH": "2025-12-23T20:00:34.764480", "MEAN_MOTION": 14.47424301, "ECCENTRICITY": 0.0061989, "INCLINATION": 73.9253, "RA_OF_ASC_NODE": 31.6773, "ARG_OF_PERICENTER": 323.5361, "MEAN_ANOMALY": 36.1582, "EPHEMERIS_TYPE": 0, "CLASSIFICATION_TYPE": "U", "NORAD_CAT_ID": 33928, "ELEMENT_SET_NO": 999, "REV_AT_EPOCH": 88805, "BSTAR": 0.00024519941, "MEAN_MOTION_DOT": 8.92e-06, "MEAN_MOTION_DDOT": 0}, "tle": {"line1": "1 33928U 93036EH  25357.83373570  .00000892  00000+0  24520-3 0  9998", "line2": "2 33928  73.9253  31.6773 0061989 323.5361  36.1582 14.47424301888053"}}, "geometry": {"type": "Point", "coordinates": [24.059571975192917, -22.458988077848176]}}, {"type": "Feature", "properties": {"norad_id": 33932, "name": "COSMOS 2251 DEB", "group": "cosmos-2251-debris", "lat": 59.20691111265502, "lon": 85.98945554268067, "alt_km": 764.477872152559, "timestamp": "2025-12-24T05:51:20.002535+00:00", "meta": {"OBJECT_NAME": "COSMOS 2251 DEB", "OBJECT_ID": "1993-036EM", "EPOCH": "2025-12-23T22:38:33.300672", "MEAN_MOTION": 14.38789367, "ECCENTRICITY": 0.00358896, "INCLINATION": 74.0343, "RA_OF_ASC_NODE": 295.2535, "ARG_OF_PERICENTER": 8.7291, "MEAN_ANOMALY": 351.448, "EPHEMERIS_TYPE": 0, "CLASSIFICATION_TYPE": "U", "NORAD_CAT_ID": 33932, "ELEMENT_SET_NO": 999, "REV_AT_EPOCH": 88159, "BSTAR": 0.00045061983, "MEAN_MOTION_DOT": 1.369e-05, "MEAN_MOTION_DDOT": 0}, "tle": {"line1": "1 33932U 93036EM  25357.94344098  .00001369  00000+0  45062-3 0  9992", "line2": "2 33932  74.0343 295.2535 0035889   8.7291 351.4480 14.38789367881596"}}, "geometry": {"type": "Point", "coordinates": [85.98945554268067, 59.20691111265502]}}, {"type": "Feature", "properties": {"norad_id": 33933, "name": "COSMOS 2251 DEB", "group": "cosmos-2251-debris", "lat": 66.8948811396916, "lon": 177.21078189326246, "alt_km": 749.6311515793323, "timestamp": "2025-12-24T05:51:20.002545+00:00", "meta": {"OBJECT_NAME": "COSMOS 2251 DEB", "OBJECT_ID": "1993-036EN", "EPOCH": "2025-12-23T19:18:54.872064", "MEAN_MOTION": 14.33504975, "ECCENTRICITY": 0.00709863, "INCLINATION": 74.0889, "RA_OF_ASC_NODE": 39.9697, "ARG_OF_PERICENTER": 45.0777, "MEAN_ANOMALY": 315.6104, "EPHEMERIS_TYPE": 0, "CLASSIFICATION_TYPE": "U", "NORAD_CAT_ID": 33933, "ELEMENT_SET_NO": 999, "REV_AT_EPOCH": 87943, "BSTAR": 0.00024260297, "MEAN_MOTION_DOT": 6.65e-06, "MEAN_MOTION_DDOT": 0}, "tle": {"line1": "1 33933U 93036EN  25357.80480176  .00000665  00000+0  24260-3 0  9991", "line2": "2 33933  74.0889  39.9697 0070986  45.0777 315.6104 14.33504975879434"}}, "geometry": {"type": "Point", "coordinates": [177.21078189326246, 66.8948811396916]}}, {"type": "Feature", "properties": {"norad_id": 33934, "name": "COSMOS 2251 DEB", "group": "cosmos-2251-debris", "lat": -23.580837226654317, "lon": -94.17085374317875, "alt_km": 690.1669380506701, "timestamp": "2025-12-24T05:51:20.002555+00:00", "meta": {"OBJECT_NAME": "COSMOS 2251 DEB", "OBJECT_ID": "1993-036EP", "EPOCH": "2025-12-23T22:20:22.395264", "MEAN_MOTION": 14.5919517, "ECCENTRICITY": 0.00151835, "INCLINATION": 74.0381, "RA_OF_ASC_NODE": 79.2489, "ARG_OF_PERICENTER": 202.8922, "MEAN_ANOMALY": 157.1569, "EPHEMERIS_TYPE": 0, "CLASSIFICATION_TYPE": "U", "NORAD_CAT_ID": 33934, "ELEMENT_SET_NO": 999, "REV_AT_EPOCH": 88902, "BSTAR": 0.00087560509, "MEAN_MOTION_DOT": 4.108e-05, "MEAN_MOTION_DDOT": 0}, "tle": {"line1": "1 33934U 93036EP  25357.93081476  .00004108  00000+0  87561-3 0  9995", "line2": "2 33934  74.0381  79.2489 0015183 202.8922 157.1569 14.59195170889022"}}, "geometry": {"type": "Point", "coordinates": [-94.17085374317875, -23.580837226654317]}}, {"type": "Feature", "properties": {"norad_id": 33936, "name": "COSMOS 2251 DEB", "group": "cosmos-2251-debris", "lat": -0.27103166544251134, "lon": -164.42661664028242, "alt_km": 676.2350031480028, "timestamp": "2025-12-24T05:51:20.002565+00:00", "meta": {"OBJECT_NAME": "COSMOS 2251 DEB", "OBJECT_ID": "1993-036ER", "EPOCH": "2025-12-23T19:10:08.490432", "MEAN_MOTION": 14.60333945, "ECCENTRICITY": 0.00267842, "INCLINATION": 74.0179, "RA_OF_ASC_NODE": 16.3464, "ARG_OF_PERICENTER": 169.1135, "MEAN_ANOMALY": 191.0617, "EPHEMERIS_TYPE": 0, "CLASSIFICATION_TYPE": "U", "NORAD_CAT_ID": 33936, "ELEMENT_SET_NO": 999, "REV_AT_EPOCH": 89051, "BSTAR": 0.00060550854, "MEAN_MOTION_DOT": 2.913e-05, "MEAN_MOTION_DDOT": 0}, "tle": {"line1": "1 33936U 93036ER  25357.79870938  .00002913  00000+0  60551-3 0  9992", "line2": "2 33936  74.0179  16.3464 0026784 169.1135 191.0617 14.60333945890517"}}, "geometry": {"type": "Point", "coordinates": [-164.42661664028242, -0.27103166544251134]}}, {"type": "Feature", "properties": {"norad_id": 33938, "name": "COSMOS 2251 DEB", "group": "cosmos-2251-debris", "lat": -14.640666569674432, "lon": 9.983545913556455, "alt_km": 736.5875540429797, "timestamp": "2025-12-24T05:51:20.002575+00:00", "meta": {"OBJECT_NAME": "COSMOS 2251 DEB", "OBJECT_ID": "1993-036ET", "EPOCH": "2025-12-23T22:49:59.582784", "MEAN_MOTION": 14.46825984, "ECCENTRICITY": 0.00167856, "INCLINATION": 74.0437, "RA_OF_ASC_NODE": 186.2433, "ARG_OF_PERICENTER": 267.4764, "MEAN_ANOMALY": 204.4371, "EPHEMERIS_TYPE": 0, "CLASSIFICATION_TYPE": "U", "NORAD_CAT_ID": 33938, "ELEMENT_SET_NO": 999, "REV_AT_EPOCH": 88562, "BSTAR": 0.00040802278, "MEAN_MOTION_DOT": 1.454e-05, "MEAN_MOTION_DDOT": 0}, "tle": {"line1": "1 33938U 93036ET  25357.95138406  .00001454  00000+0  40802-3 0  9995", "line2": "2 33938  74.0437 186.2433 0016785 267.4764 204.4371 14.46825984885624"}}, "geometry": {"type": "Point", "coordinates": [9.983545913556455, -14.640666569674432]}}]}